{"type": "FeatureCollection", "features": [ {"type": "Feature", "properties": {"norad_id": 67160, "name": "GALILEO A", "group": "last-30-days", "lat": -22.681083226035277, "lon": -55.245944750248924, "alt_km": 22929.735285416085, "timestamp": "2025-12-17T21:39:44.493977+00:00", "meta": {"OBJECT_NAME": "GALILEO A", "OBJECT_ID": "2025-302A", "EPOCH": "2025-12-17T13:37:30.970848", "MEAN_MOTION": 1.72894122, "ECCENTRICITY": 0.0007404, "INCLINATION": 54.2333, "RA_OF_ASC_NODE": 107.264, "ARG_OF_PERICENTER": 239.3858, "MEAN_ANOMALY": 120.5001, "EPHEMERIS_TYPE": 0, "CLASSIFICATION_TYPE": "U", "NORAD_CAT_ID": 67160, "ELEMENT_SET_NO": 999, "REV_AT_EPOCH": 1, "BSTAR": 0, "MEAN_MOTION_DOT": -8e-08, "MEAN_MOTION_DDOT": 0}, "tle": {"line1": "1 67160U 25302A   25351.56771957 -.00000008  00000+0  00000+0 0  9992", "line2": "2 67160  54.2333 107.2640 0007404 239.3858 120.5001  1.72894122    11"}}, "geometry": {"type": "Point", "coordinates": [-55.245944750248924, -22.681083226035277]}}, {"type": "Feature", "properties": {"norad_id": 67161, "name": "GALILEO B", "group": "last-30-days", "lat": -22.807746132954055, "lon": -55.15010237241319, "alt_km": 22927.187920113753, "timestamp": "2025-12-17T21:39:44.493987+00:00", "meta": {"OBJECT_NAME": "GALILEO B", "OBJECT_ID": "2025-302B", "EPOCH": "2025-12-17T13:37:26.133312", "MEAN_MOTION": 1.7297556, "ECCENTRICITY": 0.0005026, "INCLINATION": 54.2323, "RA_OF_ASC_NODE": 107.2467, "ARG_OF_PERICENTER": 244.253, "MEAN_ANOMALY": 115.654, "EPHEMERIS_TYPE": 0, "CLASSIFICATION_TYPE": "U", "NORAD_CAT_ID": 67161, "ELEMENT_SET_NO": 999, "REV_AT_EPOCH": 2, "BSTAR": 0, "MEAN_MOTION_DOT": -8e-08, "MEAN_MOTION_DDOT": 0}, "tle": {"line1": "1 67161U 25302B   25351.56766358 -.00000008  00000+0  00000+0 0  9992", "line2": "2 67161  54.2323 107.2467 0005026 244.2530 115.6540  1.72975560    28"}}, "geometry": {"type": "Point", "coordinates": [-55.15010237241319, -22.807746132954055]}}, {"type": "Feature", "properties": {"norad_id": 67162, "name": "ARIANE 6 R/B", "group": "last-30-days", "lat": -23.046309342513034, "lon": -54.90840132858573, "alt_km": 22921.86475157376, "timestamp": "2025-12-17T21:39:44.493998+00:00", "meta": {"OBJECT_NAME": "ARIANE 6 R/B", "OBJECT_ID": "2025-302C", "EPOCH": "2025-12-17T13:37:22.154592", "MEAN_MOTION": 1.73128064, "ECCENTRICITY": 4.83e-05, "INCLINATION": 54.2338, "RA_OF_ASC_NODE": 107.2768, "ARG_OF_PERICENTER": 122.0904, "MEAN_ANOMALY": 237.8731, "EPHEMERIS_TYPE": 0, "CLASSIFICATION_TYPE": "U", "NORAD_CAT_ID": 67162, "ELEMENT_SET_NO": 999, "REV_AT_EPOCH": 5, "BSTAR": 0, "MEAN_MOTION_DOT": -8e-08, "MEAN_MOTION_DDOT": 0}, "tle": {"line1": "1 67162U 25302C   25351.56761753 -.00000008  00000+0  00000+0 0  9997", "line2": "2 67162  54.2338 107.2768 0000483 122.0904 237.8731  1.73128064    51"}}, "geometry": {"type": "Point", "coordinates": [-54.90840132858573, -23.046309342513034]}}]}